SAUDISAT 1C (SO-50)     
1 27607U 02058C   26068.61742404  .00002222  00000+0  27919-3 0  9995
2 27607  64.5524  76.9957 0075248 280.7497  78.5144 14.82783142249695
STARLINK-5524           
1 56474U 23064AC  26068.54720615 -.00001044  00000+0 -79721-4 0  9993
2 56474  69.9998 124.9922 0003678 267.1940  92.8798 14.98314489155713
